<?xml version='1.0' encoding='utf-8'?>
<gpx version="1.1" creator="Parcours pédagogique SNT" xmlns="http://www.topografix.com/GPX/1/1"><metadata><name>Trace fictive Ville-Lumière</name></metadata><trk><name>Lycée vers Parc des Sources</name><trkseg><trkpt lat="45.7521" lon="4.8422"><ele>192</ele><time>2026-07-29T08:15:00Z</time></trkpt><trkpt lat="45.75255" lon="4.8433"><ele>193</ele><time>2026-07-29T08:16:15Z</time></trkpt><trkpt lat="45.7531" lon="4.8447"><ele>194</ele><time>2026-07-29T08:17:30Z</time></trkpt><trkpt lat="45.75365" lon="4.8461"><ele>196</ele><time>2026-07-29T08:18:45Z</time></trkpt><trkpt lat="45.7532" lon="4.8478"><ele>198</ele><time>2026-07-29T08:20:00Z</time></trkpt><trkpt lat="45.75245" lon="4.8492"><ele>199</ele><time>2026-07-29T08:21:15Z</time></trkpt><trkpt lat="45.7514" lon="4.8503"><ele>200</ele><time>2026-07-29T08:22:30Z</time></trkpt><trkpt lat="45.7501" lon="4.8509"><ele>201</ele><time>2026-07-29T08:23:45Z</time></trkpt><trkpt lat="45.7489" lon="4.8513"><ele>201</ele><time>2026-07-29T08:25:00Z</time></trkpt><trkpt lat="45.7478" lon="4.8517"><ele>201</ele><time>2026-07-29T08:26:15Z</time></trkpt></trkseg></trk></gpx>